{"type": "FeatureCollection", "features": [ {"type": "Feature", "properties": {"norad_id": 41335, "name": "SENTINEL-3A", "group": "resource", "lat": -28.869970568490135, "lon": -137.77628880058282, "alt_km": 808.7946028811084, "timestamp": "2025-12-07T22:37:42.740189+00:00", "meta": {"OBJECT_NAME": "SENTINEL-3A", "OBJECT_ID": "2016-011A", "EPOCH": "2025-12-07T06:30:12.563136", "MEAN_MOTION": 14.26743516, "ECCENTRICITY": 9.69e-05, "INCLINATION": 98.6214, "RA_OF_ASC_NODE": 46.3602, "ARG_OF_PERICENTER": 92.4257, "MEAN_ANOMALY": 267.7034, "EPHEMERIS_TYPE": 0, "CLASSIFICATION_TYPE": "U", "NORAD_CAT_ID": 41335, "ELEMENT_SET_NO": 999, "REV_AT_EPOCH": 51069, "BSTAR": 0.00014415303, "MEAN_MOTION_DOT": 3.05e-06, "MEAN_MOTION_DDOT": 0}, "tle": {"line1": "1 41335U 16011A   25341.27097874  .00000305  00000+0  14415-3 0  9999", "line2": "2 41335  98.6214  46.3602 0000969  92.4257 267.7034 14.26743516510691"}}, "geometry": {"type": "Point", "coordinates": [-137.77628880058282, -28.869970568490135]}}, {"type": "Feature", "properties": {"norad_id": 41556, "name": "ZIYUAN 3-2 (ZY 3-2)", "group": "resource", "lat": 51.33574684458712, "lon": -114.45654743944118, "alt_km": 503.43613233171436, "timestamp": "2025-12-07T22:37:42.740199+00:00", "meta": {"OBJECT_NAME": "ZIYUAN 3-2 (ZY 3-2)", "OBJECT_ID": "2016-033A", "EPOCH": "2025-12-07T06:16:54.306624", "MEAN_MOTION": 15.21385434, "ECCENTRICITY": 0.00123505, "INCLINATION": 97.4049, "RA_OF_ASC_NODE": 55.519, "ARG_OF_PERICENTER": 270.4874, "MEAN_ANOMALY": 89.4946, "EPHEMERIS_TYPE": 0, "CLASSIFICATION_TYPE": "U", "NORAD_CAT_ID": 41556, "ELEMENT_SET_NO": 999, "REV_AT_EPOCH": 52880, "BSTAR": 0.00048189352, "MEAN_MOTION_DOT": 0.00010766, "MEAN_MOTION_DDOT": 0}, "tle": {"line1": "1 41556U 16033A   25341.26173966  .00010766  00000+0  48189-3 0  9991", "line2": "2 41556  97.4049  55.5190 0012350 270.4874  89.4946 15.21385434528803"}}, "geometry": {"type": "Point", "coordinates": [-114.45654743944118, 51.33574684458712]}}, {"type": "Feature", "properties": {"norad_id": 41599, "name": "CARTOSAT-2C", "group": "resource", "lat": 68.8631567730509, "lon": -120.89820842776405, "alt_km": 494.99545538911207, "timestamp": "2025-12-07T22:37:42.740210+00:00", "meta": {"OBJECT_NAME": "CARTOSAT-2C", "OBJECT_ID": "2016-040A", "EPOCH": "2025-12-07T06:20:24.609408", "MEAN_MOTION": 15.19214447, "ECCENTRICITY": 0.00109623, "INCLINATION": 97.4769, "RA_OF_ASC_NODE": 38.5709, "ARG_OF_PERICENTER": 81.7897, "MEAN_ANOMALY": 278.458, "EPHEMERIS_TYPE": 0, "CLASSIFICATION_TYPE": "U", "NORAD_CAT_ID": 41599, "ELEMENT_SET_NO": 999, "REV_AT_EPOCH": 52457, "BSTAR": 0.00037825558, "MEAN_MOTION_DOT": 7.91e-05, "MEAN_MOTION_DDOT": 0}, "tle": {"line1": "1 41599U 16040A   25341.26417372  .00007910  00000+0  37826-3 0  9991", "line2": "2 41599  97.4769  38.5709 0010962  81.7897 278.4580 15.19214447524577"}}, "geometry": {"type": "Point", "coordinates": [-120.89820842776405, 68.8631567730509]}}, {"type": "Feature", "properties": {"norad_id": 41601, "name": "SKYSAT-C1", "group": "resource", "lat": -62.83388003887679, "lon": 33.04516847451284, "alt_km": 475.7575336677828, "timestamp": "2025-12-07T22:37:42.740221+00:00", "meta": {"OBJECT_NAME": "SKYSAT-C1", "OBJECT_ID": "2016-040C", "EPOCH": "2025-12-07T00:57:57.552480", "MEAN_MOTION": 15.32437876, "ECCENTRICITY": 0.00029548, "INCLINATION": 96.9827, "RA_OF_ASC_NODE": 18.3759, "ARG_OF_PERICENTER": 31.3205, "MEAN_ANOMALY": 328.8214, "EPHEMERIS_TYPE": 0, "CLASSIFICATION_TYPE": "U", "NORAD_CAT_ID": 41601, "ELEMENT_SET_NO": 999, "REV_AT_EPOCH": 52840, "BSTAR": 0.00045537676, "MEAN_MOTION_DOT": 0.00014203, "MEAN_MOTION_DDOT": 0}, "tle": {"line1": "1 41601U 16040C   25341.04024945  .00014203  00000+0  45538-3 0  9993", "line2": "2 41601  96.9827  18.3759 0002954  31.3205 328.8214 15.32437876528405"}}, "geometry": {"type": "Point", "coordinates": [33.04516847451284, -62.83388003887679]}}, {"type": "Feature", "properties": {"norad_id": 41603, "name": "LAPAN-A3", "group": "resource", "lat": 79.67869897638818, "lon": -156.81029778168323, "alt_km": 465.8787184504754, "timestamp": "2025-12-07T22:37:42.740232+00:00", "meta": {"OBJECT_NAME": "LAPAN-A3", "OBJECT_ID": "2016-040E", "EPOCH": "2025-12-07T06:31:25.845024", "MEAN_MOTION": 15.31485968, "ECCENTRICITY": 0.00103324, "INCLINATION": 97.1424, "RA_OF_ASC_NODE": 339.0271, "ARG_OF_PERICENTER": 354.4002, "MEAN_ANOMALY": 5.7123, "EPHEMERIS_TYPE": 0, "CLASSIFICATION_TYPE": "U", "NORAD_CAT_ID": 41603, "ELEMENT_SET_NO": 999, "REV_AT_EPOCH": 52542, "BSTAR": 0.00020872683, "MEAN_MOTION_DOT": 6.282e-05, "MEAN_MOTION_DDOT": 0}, "tle": {"line1": "1 41603U 16040E   25341.27182691  .00006282  00000+0  20873-3 0  9996", "line2": "2 41603  97.1424 339.0271 0010332 354.4002   5.7123 15.31485968525421"}}, "geometry": {"type": "Point", "coordinates": [-156.81029778168323, 79.67869897638818]}}, {"type": "Feature", "properties": {"norad_id": 41604, "name": "BIROS", "group": "resource", "lat": 14.755274195535804, "lon": 11.317929222962173, "alt_km": 311.5282861939413, "timestamp": "2025-12-07T22:37:42.740242+00:00", "meta": {"OBJECT_NAME": "BIROS", "OBJECT_ID": "2016-040F", "EPOCH": "2025-12-07T01:23:11.861088", "MEAN_MOTION": 15.87363914, "ECCENTRICITY": 0.00030674, "INCLINATION": 97.068, "RA_OF_ASC_NODE": 12.2729, "ARG_OF_PERICENTER": 160.568, "MEAN_ANOMALY": 199.571, "EPHEMERIS_TYPE": 0, "CLASSIFICATION_TYPE": "U", "NORAD_CAT_ID": 41604, "ELEMENT_SET_NO": 999, "REV_AT_EPOCH": 52782, "BSTAR": 0.00071317308, "MEAN_MOTION_DOT": 0.00189994, "MEAN_MOTION_DDOT": 0}, "tle": {"line1": "1 41604U 16040F   25341.05777617  .00189994  00000+0  71317-3 0  9992", "line2": "2 41604  97.0680  12.2729 0003067 160.5680 199.5710 15.87363914527825"}}, "geometry": {"type": "Point", "coordinates": [11.317929222962173, 14.755274195535804]}}, {"type": "Feature", "properties": {"norad_id": 41727, "name": "GAOFEN-3", "group": "resource", "lat": -25.680117000886966, "lon": -8.321363155965331, "alt_km": 756.8935596511992, "timestamp": "2025-12-07T22:37:42.740252+00:00", "meta": {"OBJECT_NAME": "GAOFEN-3", "OBJECT_ID": "2016-049A", "EPOCH": "2025-12-07T07:45:46.941408", "MEAN_MOTION": 14.42211805, "ECCENTRICITY": 0.00015099, "INCLINATION": 98.404, "RA_OF_ASC_NODE": 346.9924, "ARG_OF_PERICENTER": 70.0717, "MEAN_ANOMALY": 290.0635, "EPHEMERIS_TYPE": 0, "CLASSIFICATION_TYPE": "U", "NORAD_CAT_ID": 41727, "ELEMENT_SET_NO": 999, "REV_AT_EPOCH": 49099, "BSTAR": 6.6618425e-05, "MEAN_MOTION_DOT": 1.76e-06, "MEAN_MOTION_DDOT": 0}, "tle": {"line1": "1 41727U 16049A   25341.32345997  .00000176  00000+0  66618-4 0  9992", "line2": "2 41727  98.4040 346.9924 0001509  70.0717 290.0635 14.42211805490996"}}, "geometry": {"type": "Point", "coordinates": [-8.321363155965331, -25.680117000886966]}}, {"type": "Feature", "properties": {"norad_id": 41771, "name": "SKYSAT-C4", "group": "resource", "lat": 64.78181106684896, "lon": -7.619338793023638, "alt_km": 433.46286611369305, "timestamp": "2025-12-07T22:37:42.740263+00:00", "meta": {"OBJECT_NAME": "SKYSAT-C4", "OBJECT_ID": "2016-058B", "EPOCH": "2025-12-07T00:32:27.047328", "MEAN_MOTION": 15.42009981, "ECCENTRICITY": 9.982e-05, "INCLINATION": 96.9374, "RA_OF_ASC_NODE": 6.489, "ARG_OF_PERICENTER": 131.1429, "MEAN_ANOMALY": 228.9905, "EPHEMERIS_TYPE": 0, "CLASSIFICATION_TYPE": "U", "NORAD_CAT_ID": 41771, "ELEMENT_SET_NO": 999, "REV_AT_EPOCH": 51579, "BSTAR": 0.00051267027, "MEAN_MOTION_DOT": 0.00021813, "MEAN_MOTION_DDOT": 0}, "tle": {"line1": "1 41771U 16058B   25341.02253527  .00021813  00000+0  51267-3 0  9999", "line2": "2 41771  96.9374   6.4890 0000998 131.1429 228.9905 15.42009981515795"}}, "geometry": {"type": "Point", "coordinates": [-7.619338793023638, 64.78181106684896]}}, {"type": "Feature", "properties": {"norad_id": 41772, "name": "SKYSAT-C5", "group": "resource", "lat": 78.18626782462223, "lon": -117.67977874123002, "alt_km": 450.2502428332946, "timestamp": "2025-12-07T22:37:42.740274+00:00", "meta": {"OBJECT_NAME": "SKYSAT-C5", "OBJECT_ID": "2016-058C", "EPOCH": "2025-12-07T01:51:53.662752", "MEAN_MOTION": 15.35504726, "ECCENTRICITY": 0.00027517, "INCLINATION": 97.0761, "RA_OF_ASC_NODE": 25.0549, "ARG_OF_PERICENTER": 118.8514, "MEAN_ANOMALY": 241.3007, "EPHEMERIS_TYPE": 0, "CLASSIFICATION_TYPE": "U", "NORAD_CAT_ID": 41772, "ELEMENT_SET_NO": 999, "REV_AT_EPOCH": 51429, "BSTAR": 0.00045247458, "MEAN_MOTION_DOT": 0.00015551, "MEAN_MOTION_DDOT": 0}, "tle": {"line1": "1 41772U 16058C   25341.07770443  .00015551  00000+0  45247-3 0  9999", "line2": "2 41772  97.0761  25.0549 0002751 118.8514 241.3007 15.35504726514297"}}, "geometry": {"type": "Point", "coordinates": [-117.67977874123002, 78.18626782462223]}}, {"type": "Feature", "properties": {"norad_id": 41773, "name": "SKYSAT-C2", "group": "resource", "lat": 74.27697233637693, "lon": -19.348710678552813, "alt_km": 444.7689608300925, "timestamp": "2025-12-07T22:37:42.740284+00:00", "meta": {"OBJECT_NAME": "SKYSAT-C2", "OBJECT_ID": "2016-058D", "EPOCH": "2025-12-07T00:25:34.018176", "MEAN_MOTION": 15.37079918, "ECCENTRICITY": 0.00047823, "INCLINATION": 97.0359, "RA_OF_ASC_NODE": 5.7876, "ARG_OF_PERICENTER": 49.0966, "MEAN_ANOMALY": 311.0693, "EPHEMERIS_TYPE": 0, "CLASSIFICATION_TYPE": "U", "NORAD_CAT_ID": 41773, "ELEMENT_SET_NO": 999, "REV_AT_EPOCH": 51548, "BSTAR": 0.00047915809, "MEAN_MOTION_DOT": 0.00017335, "MEAN_MOTION_DDOT": 0}, "tle": {"line1": "1 41773U 16058D   25341.01775484  .00017335  00000+0  47916-3 0  9991", "line2": "2 41773  97.0359   5.7876 0004782  49.0966 311.0693 15.37079918515481"}}, "geometry": {"type": "Point", "coordinates": [-19.348710678552813, 74.27697233637693]}}]}